{"type": "FeatureCollection", "features": [ {"type": "Feature", "properties": {"norad_id": 31311, "name": "FENGYUN 1C DEB", "group": "fengyun-1c-debris", "lat": 79.62802826022687, "lon": 24.503191780597668, "alt_km": 775.3878438269903, "timestamp": "2025-12-27T06:41:31.208179+00:00", "meta": {"OBJECT_NAME": "FENGYUN 1C DEB", "OBJECT_ID": "1999-025BPP", "EPOCH": "2025-12-26T19:06:07.215840", "MEAN_MOTION": 14.29863048, "ECCENTRICITY": 0.00174262, "INCLINATION": 98.8513, "RA_OF_ASC_NODE": 82.3735, "ARG_OF_PERICENTER": 44.5965, "MEAN_ANOMALY": 75.45, "EPHEMERIS_TYPE": 0, "CLASSIFICATION_TYPE": "U", "NORAD_CAT_ID": 31311, "ELEMENT_SET_NO": 999, "REV_AT_EPOCH": 96422, "BSTAR": 0.0017180334, "MEAN_MOTION_DOT": 4.384e-05, "MEAN_MOTION_DDOT": 0}, "tle": {"line1": "1 31311U 99025BPP 25360.79591685  .00004384  00000+0  17180-2 0  9997", "line2": "2 31311  98.8513  82.3735 0017426  44.5965  75.4500 14.29863048964225"}}, "geometry": {"type": "Point", "coordinates": [24.503191780597668, 79.62802826022687]}}, {"type": "Feature", "properties": {"norad_id": 31312, "name": "FENGYUN 1C DEB", "group": "fengyun-1c-debris", "lat": 1.007625874340289, "lon": 166.66871560358655, "alt_km": 852.9060900986606, "timestamp": "2025-12-27T06:41:31.208189+00:00", "meta": {"OBJECT_NAME": "FENGYUN 1C DEB", "OBJECT_ID": "1999-025BPQ", "EPOCH": "2025-12-15T05:56:52.525824", "MEAN_MOTION": 14.00925702, "ECCENTRICITY": 0.00580012, "INCLINATION": 98.8604, "RA_OF_ASC_NODE": 334.8421, "ARG_OF_PERICENTER": 229.1743, "MEAN_ANOMALY": 146.4845, "EPHEMERIS_TYPE": 0, "CLASSIFICATION_TYPE": "U", "NORAD_CAT_ID": 31312, "ELEMENT_SET_NO": 999, "REV_AT_EPOCH": 95181, "BSTAR": 0.00060391584, "MEAN_MOTION_DOT": 8.73e-06, "MEAN_MOTION_DDOT": 0}, "tle": {"line1": "1 31312U 99025BPQ 25349.24783016  .00000873  00000+0  60392-3 0  9999", "line2": "2 31312  98.8604 334.8421 0058001 229.1743 146.4845 14.00925702951810"}}, "geometry": {"type": "Point", "coordinates": [166.66871560358655, 1.007625874340289]}}, {"type": "Feature", "properties": {"norad_id": 31313, "name": "FENGYUN 1C DEB", "group": "fengyun-1c-debris", "lat": -77.15163358884635, "lon": 41.37534235723459, "alt_km": 841.7371897064622, "timestamp": "2025-12-27T06:41:31.208199+00:00", "meta": {"OBJECT_NAME": "FENGYUN 1C DEB", "OBJECT_ID": "1999-025BPR", "EPOCH": "2025-12-24T23:26:43.034208", "MEAN_MOTION": 14.22289458, "ECCENTRICITY": 0.00452183, "INCLINATION": 99.0155, "RA_OF_ASC_NODE": 263.1355, "ARG_OF_PERICENTER": 146.0282, "MEAN_ANOMALY": 214.3805, "EPHEMERIS_TYPE": 0, "CLASSIFICATION_TYPE": "U", "NORAD_CAT_ID": 31313, "ELEMENT_SET_NO": 999, "REV_AT_EPOCH": 97236, "BSTAR": 0.00028931861, "MEAN_MOTION_DOT": 6.03e-06, "MEAN_MOTION_DDOT": 0}, "tle": {"line1": "1 31313U 99025BPR 25358.97688697  .00000603  00000+0  28932-3 0  9994", "line2": "2 31313  99.0155 263.1355 0045218 146.0282 214.3805 14.22289458972365"}}, "geometry": {"type": "Point", "coordinates": [41.37534235723459, -77.15163358884635]}}, {"type": "Feature", "properties": {"norad_id": 31314, "name": "FENGYUN 1C DEB", "group": "fengyun-1c-debris", "lat": 56.337906319594204, "lon": -171.62710216902144, "alt_km": 926.3532071229874, "timestamp": "2025-12-27T06:41:31.208209+00:00", "meta": {"OBJECT_NAME": "FENGYUN 1C DEB", "OBJECT_ID": "1999-025BPS", "EPOCH": "2025-12-23T18:21:29.542464", "MEAN_MOTION": 14.04935458, "ECCENTRICITY": 0.00782515, "INCLINATION": 98.8224, "RA_OF_ASC_NODE": 351.4704, "ARG_OF_PERICENTER": 326.4651, "MEAN_ANOMALY": 33.1576, "EPHEMERIS_TYPE": 0, "CLASSIFICATION_TYPE": "U", "NORAD_CAT_ID": 31314, "ELEMENT_SET_NO": 999, "REV_AT_EPOCH": 60969, "BSTAR": 0.00036988335, "MEAN_MOTION_DOT": 5.68e-06, "MEAN_MOTION_DDOT": 0}, "tle": {"line1": "1 31314U 99025BPS 25357.76492526  .00000568  00000+0  36988-3 0  9995", "line2": "2 31314  98.8224 351.4704 0078251 326.4651  33.1576 14.04935458609699"}}, "geometry": {"type": "Point", "coordinates": [-171.62710216902144, 56.337906319594204]}}, {"type": "Feature", "properties": {"norad_id": 31319, "name": "FENGYUN 1C DEB", "group": "fengyun-1c-debris", "lat": -79.02971490757488, "lon": 25.718039838292647, "alt_km": 1087.9519436736755, "timestamp": "2025-12-27T06:41:31.208219+00:00", "meta": {"OBJECT_NAME": "FENGYUN 1C DEB", "OBJECT_ID": "1999-025BPX", "EPOCH": "2025-12-25T12:23:06.552384", "MEAN_MOTION": 13.75833917, "ECCENTRICITY": 0.017059, "INCLINATION": 98.831, "RA_OF_ASC_NODE": 257.4028, "ARG_OF_PERICENTER": 53.0248, "MEAN_ANOMALY": 125.1909, "EPHEMERIS_TYPE": 0, "CLASSIFICATION_TYPE": "U", "NORAD_CAT_ID": 31319, "ELEMENT_SET_NO": 999, "REV_AT_EPOCH": 93863, "BSTAR": 0.00021521, "MEAN_MOTION_DOT": 1.93e-06, "MEAN_MOTION_DDOT": 0}, "tle": {"line1": "1 31319U 99025BPX 25359.51604806  .00000193  00000+0  21521-3 0  9992", "line2": "2 31319  98.8310 257.4028 0170590  53.0248 125.1909 13.75833917938633"}}, "geometry": {"type": "Point", "coordinates": [25.718039838292647, -79.02971490757488]}}, {"type": "Feature", "properties": {"norad_id": 31321, "name": "FENGYUN 1C DEB", "group": "fengyun-1c-debris", "lat": 21.964877754961872, "lon": 76.25814148454108, "alt_km": 854.9395402978807, "timestamp": "2025-12-27T06:41:31.208230+00:00", "meta": {"OBJECT_NAME": "FENGYUN 1C DEB", "OBJECT_ID": "1999-025BPZ", "EPOCH": "2025-12-21T11:18:43.092576", "MEAN_MOTION": 14.13827699, "ECCENTRICITY": 0.00303049, "INCLINATION": 98.7333, "RA_OF_ASC_NODE": 74.1401, "ARG_OF_PERICENTER": 153.2037, "MEAN_ANOMALY": 207.0709, "EPHEMERIS_TYPE": 0, "CLASSIFICATION_TYPE": "U", "NORAD_CAT_ID": 31321, "ELEMENT_SET_NO": 999, "REV_AT_EPOCH": 57507, "BSTAR": 0.00012257196, "MEAN_MOTION_DOT": 1.9e-06, "MEAN_MOTION_DDOT": 0}, "tle": {"line1": "1 31321U 99025BPZ 25355.47133209  .00000190  00000+0  12257-3 0  9993", "line2": "2 31321  98.7333  74.1401 0030304 153.2037 207.0709 14.13827699575072"}}, "geometry": {"type": "Point", "coordinates": [76.25814148454108, 21.964877754961872]}}, {"type": "Feature", "properties": {"norad_id": 31322, "name": "FENGYUN 1C DEB", "group": "fengyun-1c-debris", "lat": 80.89246703092012, "lon": -6.641172510592671, "alt_km": 1053.8287330780386, "timestamp": "2025-12-27T06:41:31.208240+00:00", "meta": {"OBJECT_NAME": "FENGYUN 1C DEB", "OBJECT_ID": "1999-025BQA", "EPOCH": "2025-12-25T10:38:41.423136", "MEAN_MOTION": 13.73002665, "ECCENTRICITY": 0.0237967, "INCLINATION": 98.5719, "RA_OF_ASC_NODE": 61.9077, "ARG_OF_PERICENTER": 336.1945, "MEAN_ANOMALY": 41.6385, "EPHEMERIS_TYPE": 0, "CLASSIFICATION_TYPE": "U", "NORAD_CAT_ID": 31322, "ELEMENT_SET_NO": 999, "REV_AT_EPOCH": 62450, "BSTAR": 0.00021153, "MEAN_MOTION_DOT": 2e-06, "MEAN_MOTION_DDOT": 0}, "tle": {"line1": "1 31322U 99025BQA 25359.44353499  .00000200  00000+0  21153-3 0  9997", "line2": "2 31322  98.5719  61.9077 0237967 336.1945  41.6385 13.73002665624504"}}, "geometry": {"type": "Point", "coordinates": [-6.641172510592671, 80.89246703092012]}}, {"type": "Feature", "properties": {"norad_id": 31323, "name": "FENGYUN 1C DEB", "group": "fengyun-1c-debris", "lat": -21.49571880904276, "lon": 44.61965368800355, "alt_km": 793.6356823735441, "timestamp": "2025-12-27T06:41:31.208250+00:00", "meta": {"OBJECT_NAME": "FENGYUN 1C DEB", "OBJECT_ID": "1999-025BQB", "EPOCH": "2025-12-20T21:43:51.769056", "MEAN_MOTION": 14.27642156, "ECCENTRICITY": 0.0030892, "INCLINATION": 99.4195, "RA_OF_ASC_NODE": 34.0071, "ARG_OF_PERICENTER": 56.5612, "MEAN_ANOMALY": 303.8513, "EPHEMERIS_TYPE": 0, "CLASSIFICATION_TYPE": "U", "NORAD_CAT_ID": 31323, "ELEMENT_SET_NO": 999, "REV_AT_EPOCH": 64097, "BSTAR": 0.0010025, "MEAN_MOTION_DOT": 2.433e-05, "MEAN_MOTION_DDOT": 0}, "tle": {"line1": "1 31323U 99025BQB 25354.90546029  .00002433  00000+0  10025-2 0  9992", "line2": "2 31323  99.4195  34.0071 0030892  56.5612 303.8513 14.27642156640970"}}, "geometry": {"type": "Point", "coordinates": [44.61965368800355, -21.49571880904276]}}, {"type": "Feature", "properties": {"norad_id": 31324, "name": "FENGYUN 1C DEB", "group": "fengyun-1c-debris", "lat": 48.31985252872296, "lon": 113.46892718177605, "alt_km": 862.570917225501, "timestamp": "2025-12-27T06:41:31.208260+00:00", "meta": {"OBJECT_NAME": "FENGYUN 1C DEB", "OBJECT_ID": "1999-025BQC", "EPOCH": "2025-12-21T14:16:42.684672", "MEAN_MOTION": 14.14700279, "ECCENTRICITY": 0.0048997, "INCLINATION": 99.1242, "RA_OF_ASC_NODE": 277.2633, "ARG_OF_PERICENTER": 278.9209, "MEAN_ANOMALY": 80.6419, "EPHEMERIS_TYPE": 0, "CLASSIFICATION_TYPE": "U", "NORAD_CAT_ID": 31324, "ELEMENT_SET_NO": 999, "REV_AT_EPOCH": 96611, "BSTAR": 0.00014071, "MEAN_MOTION_DOT": 2.27e-06, "MEAN_MOTION_DDOT": 0}, "tle": {"line1": "1 31324U 99025BQC 25355.59493848  .00000227  00000+0  14071-3 0  9994", "line2": "2 31324  99.1242 277.2633 0048997 278.9209  80.6419 14.14700279966112"}}, "geometry": {"type": "Point", "coordinates": [113.46892718177605, 48.31985252872296]}}, {"type": "Feature", "properties": {"norad_id": 31325, "name": "FENGYUN 1C DEB", "group": "fengyun-1c-debris", "lat": 20.371465122238448, "lon": -81.03462207539194, "alt_km": 786.4372114950693, "timestamp": "2025-12-27T06:41:31.208270+00:00", "meta": {"OBJECT_NAME": "FENGYUN 1C DEB", "OBJECT_ID": "1999-025BQD", "EPOCH": "2025-12-23T23:59:08.872800", "MEAN_MOTION": 14.16974364, "ECCENTRICITY": 0.00722678, "INCLINATION": 98.9921, "RA_OF_ASC_NODE": 92.2798, "ARG_OF_PERICENTER": 188.6721, "MEAN_ANOMALY": 171.3209, "EPHEMERIS_TYPE": 0, "CLASSIFICATION_TYPE": "U", "NORAD_CAT_ID": 31325, "ELEMENT_SET_NO": 999, "REV_AT_EPOCH": 59937, "BSTAR": 0.0020925352, "MEAN_MOTION_DOT": 4.268e-05, "MEAN_MOTION_DDOT": 0}, "tle": {"line1": "1 31325U 99025BQD 25357.99940825  .00004268  00000+0  20925-2 0  9996", "line2": "2 31325  98.9921  92.2798 0072267 188.6721 171.3209 14.16974364599379"}}, "geometry": {"type": "Point", "coordinates": [-81.03462207539194, 20.371465122238448]}}]}